{"spkid": "50120927", "covariance": {"elements": [{"sigma": 3.86037515327222e-07, "name": "e", "title": "eccentricity", "value": ".764213473439294", "units": null, "label": "e"}, {"sigma": 8.0700310568918e-07, "name": "q", "value": ".487880975577154", "title": "perihelion distance", "units": "au", "label": "q"}, {"label": "tp", "name": "tp", "sigma": 6.95154982849244e-05, "value": "2459926.349867177025", "title": "time of perihelion passage", "units": "TDB"}, {"label": "node", "sigma": 0.00017242686832753, "name": "om", "units": "deg", "value": "9.063279443269385", "title": "longitude of the ascending node"}, {"value": "90.55543422731765", "title": "argument of perihelion", "units": "deg", "sigma": 0.000112507548698881, "name": "w", "label": "peri"}, {"label": "i", "units": "deg", "title": "inclination", "value": "5.133712116378232", "sigma": 1.78715670663116e-05, "name": "i"}], "data": [["1.490249632400149E-13", "-3.115329153259958E-13", "1.469047425872144E-11", "6.097522663639907E-11", "-3.535107010424505E-11", "-6.102401198122473E-12"], ["-3.115329153259958E-13", "6.512540125919815E-13", "-3.063125775814529E-11", "-1.274417958385721E-10", "7.389316493887071E-11", "1.275721680160661E-11"], ["1.469047425872144E-11", "-3.063125775814529E-11", "4.832404501801326E-9", "7.381463062219222E-9", "-4.056328802672775E-9", "-6.218110353074764E-10"], ["6.097522663639907E-11", "-1.274417958385721E-10", "7.381463062219222E-9", "2.973102492123924E-8", "-1.88880603567735E-8", "-2.864244243321302E-9"], ["-3.535107010424505E-11", "7.389316493887071E-11", "-4.056328802672775E-9", "-1.88880603567735E-8", "1.2657948514231E-8", "1.80634739474037E-9"], ["-6.102401198122473E-12", "1.275721680160661E-11", "-6.218110353074764E-10", "-2.864244243321302E-9", "1.80634739474037E-9", "3.193929094056745E-10"]], "labels": ["e", "q", "tp", "node", "peri", "i"], "epoch": "2459864.5"}, "elements": [{"name": "e", "sigma": "3.8619E-7", "value": ".7645589830907963", "title": "eccentricity", "units": null, "label": "e"}, {"title": "semi-major axis", "value": "2.068663311697149", "units": "au", "sigma": "3.5659E-8", "name": "a", "label": "a"}, {"label": "q", "name": "q", "sigma": "8.0717E-7", "title": "perihelion distance", "value": ".4870481937487378", "units": "au"}, {"label": "i", "sigma": "1.7881E-5", "name": "i", "title": "inclination; angle with respect to x-y ecliptic plane", "value": "5.133714566611998", "units": "deg"}, {"label": "node", "value": "8.993934470797758", "title": "longitude of the ascending node", "units": "deg", "sigma": ".00017245", "name": "om"}, {"label": "peri", "name": "w", "sigma": ".00011256", "units": "deg", "value": "90.63575739454258", "title": "argument of perihelion"}, {"sigma": "2.1041E-5", "name": "ma", "units": "deg", "title": "mean anomaly", "value": "61.9479338746423", "label": "M"}, {"name": "tp", "sigma": "6.3329E-5", "value": "2461013.493169122544", "title": "time of perihelion passage", "units": "TDB", "label": "tp"}, {"sigma": "2.81E-5", "name": "per", "value": "1086.758748921598", "title": "sidereal orbital period", "units": "d", "label": "period"}, {"label": "n", "units": "deg/d", "value": ".3312602731353503", "title": "mean motion", "name": "n", "sigma": "8.5653E-9"}, {"label": "Q", "name": "ad", "sigma": "6.2923E-8", "title": "aphelion distance", "value": "3.65027842964556", "units": "au"}], "epoch": "2461200.5"}